{
"type": "FeatureCollection",
"name": "r12",
"crs": { "type": "name", "properties": { "name": "urn:ogc:def:crs:OGC:1.3:CRS84" } },
"features": [
{ "type": "Feature", "properties": { "DIST_KM": 8.528, "DURATION_H": 0.215, "PROFILE": "driving-car", "PREF": "fastest", "OPTIONS": { }, "FROM_ID": null, "TO_ID": null }, "geometry": { "type": "LineString", "coordinates": [ [ -58.734232, -34.607813 ], [ -58.733996, -34.607995 ], [ -58.733, -34.60709 ], [ -58.732365, -34.607569 ], [ -58.731615, -34.608134 ], [ -58.730993, -34.608611 ], [ -58.730197, -34.609227 ], [ -58.73118, -34.610132 ], [ -58.732176, -34.611022 ], [ -58.733154, -34.611902 ], [ -58.733993, -34.61268 ], [ -58.734837, -34.613431 ], [ -58.734169, -34.613938 ], [ -58.7341, -34.613994 ], [ -58.733976, -34.614085 ], [ -58.733815, -34.614207 ], [ -58.733588, -34.614372 ], [ -58.733428, -34.61449 ], [ -58.732961, -34.61485 ], [ -58.731283, -34.616144 ], [ -58.731153, -34.61624 ], [ -58.731404, -34.616449 ], [ -58.731492, -34.61653 ], [ -58.734602, -34.619353 ], [ -58.735068, -34.619013 ], [ -58.735843, -34.619701 ], [ -58.736639, -34.620418 ], [ -58.737459, -34.621147 ], [ -58.738247, -34.621885 ], [ -58.739034, -34.622599 ], [ -58.739785, -34.623299 ], [ -58.740418, -34.62385 ], [ -58.741463, -34.624782 ], [ -58.742592, -34.625798 ], [ -58.743386, -34.626552 ], [ -58.744131, -34.627206 ], [ -58.744207, -34.627291 ], [ -58.743482, -34.627844 ], [ -58.744273, -34.628568 ], [ -58.743777, -34.628934 ], [ -58.74398, -34.629109 ], [ -58.744278, -34.629488 ], [ -58.744495, -34.62999 ], [ -58.744591, -34.630164 ], [ -58.744712, -34.630317 ], [ -58.745035, -34.630619 ], [ -58.7454, -34.630848 ], [ -58.747008, -34.631682 ], [ -58.747842, -34.632054 ], [ -58.749127, -34.632553 ], [ -58.749488, -34.632675 ], [ -58.750228, -34.6329 ], [ -58.750729, -34.633029 ], [ -58.751924, -34.633292 ], [ -58.752486, -34.633401 ], [ -58.754949, -34.633785 ], [ -58.757276, -34.634091 ], [ -58.758773, -34.634226 ], [ -58.760972, -34.634336 ], [ -58.76305, -34.634429 ], [ -58.764968, -34.634575 ], [ -58.765715, -34.634666 ], [ -58.768907, -34.635149 ], [ -58.769964, -34.635338 ], [ -58.770481, -34.635391 ], [ -58.772276, -34.635525 ], [ -58.773262, -34.635557 ], [ -58.774495, -34.635571 ], [ -58.777335, -34.635544 ], [ -58.780415, -34.635519 ], [ -58.781085, -34.635466 ], [ -58.783349, -34.635341 ], [ -58.783623, -34.63531 ], [ -58.784441, -34.635156 ], [ -58.78511, -34.635097 ], [ -58.785405, -34.635078 ], [ -58.785642, -34.635058 ], [ -58.785743, -34.635088 ], [ -58.785863, -34.635177 ], [ -58.785904, -34.635231 ], [ -58.785931, -34.635298 ], [ -58.785991, -34.63568 ], [ -58.78604, -34.635976 ], [ -58.786174, -34.636328 ], [ -58.786761, -34.637796 ], [ -58.787059, -34.638523 ], [ -58.787534, -34.639645 ], [ -58.787991, -34.640752 ], [ -58.78844, -34.64187 ], [ -58.78858, -34.642228 ], [ -58.788714, -34.642243 ] ] } }
]
}
