{
"type": "FeatureCollection",
"name": "r3",
"crs": { "type": "name", "properties": { "name": "urn:ogc:def:crs:OGC:1.3:CRS84" } },
"features": [
{ "type": "Feature", "properties": { "DIST_KM": 4.545, "DURATION_H": 0.117, "PROFILE": "driving-car", "PREF": "fastest", "OPTIONS": { }, "FROM_ID": null, "TO_ID": null }, "geometry": { "type": "LineString", "coordinates": [ [ -58.792765, -34.610423 ], [ -58.792618, -34.610326 ], [ -58.791581, -34.60963 ], [ -58.791031, -34.610179 ], [ -58.790502, -34.610717 ], [ -58.789963, -34.61128 ], [ -58.789374, -34.611907 ], [ -58.788653, -34.612655 ], [ -58.787974, -34.613365 ], [ -58.787244, -34.614098 ], [ -58.786545, -34.614826 ], [ -58.786083, -34.615367 ], [ -58.785735, -34.615785 ], [ -58.784907, -34.616736 ], [ -58.784395, -34.617281 ], [ -58.783907, -34.617815 ], [ -58.783378, -34.618342 ], [ -58.782871, -34.618872 ], [ -58.782379, -34.619384 ], [ -58.782359, -34.619408 ], [ -58.782301, -34.619475 ], [ -58.782276, -34.6195 ], [ -58.781782, -34.620012 ], [ -58.781282, -34.620526 ], [ -58.780772, -34.62106 ], [ -58.78026, -34.62159 ], [ -58.779744, -34.622119 ], [ -58.779194, -34.622681 ], [ -58.778658, -34.623232 ], [ -58.778185, -34.623733 ], [ -58.778001, -34.62392 ], [ -58.777681, -34.624251 ], [ -58.777197, -34.624778 ], [ -58.777013, -34.624936 ], [ -58.777664, -34.625962 ], [ -58.777851, -34.626245 ], [ -58.778283, -34.626811 ], [ -58.778944, -34.627628 ], [ -58.779602, -34.628471 ], [ -58.779927, -34.628882 ], [ -58.780412, -34.629478 ], [ -58.780993, -34.63025 ], [ -58.781544, -34.63092 ], [ -58.781733, -34.631154 ], [ -58.782219, -34.631772 ], [ -58.783074, -34.632792 ], [ -58.7832, -34.632951 ], [ -58.78349, -34.633258 ], [ -58.784058, -34.633785 ], [ -58.784493, -34.634203 ], [ -58.784772, -34.634464 ], [ -58.785059, -34.634705 ], [ -58.7854, -34.634947 ], [ -58.785642, -34.635058 ], [ -58.785743, -34.635088 ], [ -58.785863, -34.635177 ], [ -58.785904, -34.635231 ], [ -58.785931, -34.635298 ], [ -58.785991, -34.63568 ], [ -58.78604, -34.635976 ], [ -58.786174, -34.636328 ], [ -58.786761, -34.637796 ], [ -58.787059, -34.638523 ], [ -58.787534, -34.639645 ], [ -58.787991, -34.640752 ], [ -58.78844, -34.64187 ], [ -58.78858, -34.642228 ], [ -58.788714, -34.642243 ] ] } }
]
}
