{
"type": "FeatureCollection",
"name": "r5",
"crs": { "type": "name", "properties": { "name": "urn:ogc:def:crs:OGC:1.3:CRS84" } },
"features": [
{ "type": "Feature", "properties": { "DIST_KM": 3.853, "DURATION_H": 0.124, "PROFILE": "driving-car", "PREF": "fastest", "OPTIONS": { }, "FROM_ID": null, "TO_ID": null }, "geometry": { "type": "LineString", "coordinates": [ [ -58.796182, -34.614501 ], [ -58.796018, -34.614622 ], [ -58.795505, -34.61496 ], [ -58.795971, -34.615265 ], [ -58.795378, -34.615883 ], [ -58.794687, -34.616617 ], [ -58.793983, -34.617363 ], [ -58.793268, -34.618082 ], [ -58.792585, -34.618809 ], [ -58.793677, -34.619552 ], [ -58.792787, -34.620453 ], [ -58.791876, -34.621394 ], [ -58.792091, -34.621539 ], [ -58.791326, -34.62233 ], [ -58.790567, -34.623139 ], [ -58.789802, -34.62392 ], [ -58.788957, -34.624793 ], [ -58.788929, -34.624817 ], [ -58.788855, -34.624892 ], [ -58.788838, -34.624908 ], [ -58.78809, -34.6257 ], [ -58.787153, -34.62665 ], [ -58.786553, -34.627277 ], [ -58.785647, -34.628225 ], [ -58.784751, -34.629159 ], [ -58.783836, -34.630096 ], [ -58.783255, -34.630695 ], [ -58.782726, -34.631275 ], [ -58.782333, -34.631696 ], [ -58.782219, -34.631772 ], [ -58.783074, -34.632792 ], [ -58.7832, -34.632951 ], [ -58.78349, -34.633258 ], [ -58.784058, -34.633785 ], [ -58.784493, -34.634203 ], [ -58.784772, -34.634464 ], [ -58.785059, -34.634705 ], [ -58.7854, -34.634947 ], [ -58.785642, -34.635058 ], [ -58.785743, -34.635088 ], [ -58.785863, -34.635177 ], [ -58.785904, -34.635231 ], [ -58.785931, -34.635298 ], [ -58.785991, -34.63568 ], [ -58.78604, -34.635976 ], [ -58.786174, -34.636328 ], [ -58.786761, -34.637796 ], [ -58.787059, -34.638523 ], [ -58.787534, -34.639645 ], [ -58.787991, -34.640752 ], [ -58.78844, -34.64187 ], [ -58.78858, -34.642228 ], [ -58.788714, -34.642243 ] ] } }
]
}
