{
"type": "FeatureCollection",
"name": "r1",
"crs": { "type": "name", "properties": { "name": "urn:ogc:def:crs:OGC:1.3:CRS84" } },
"features": [
{ "type": "Feature", "properties": { "DIST_KM": 8.658, "DURATION_H": 0.298, "PROFILE": "driving-car", "PREF": "shortest", "OPTIONS": { }, "FROM_ID": null, "TO_ID": null, "auxiliary_storage_labeling_positionx": null, "auxiliary_storage_labeling_positiony": null, "auxiliary_storage_labeling_lineanchorpercent": 0.092913836202934502, "auxiliary_storage_labeling_lineanchorclipping": "entire", "auxiliary_storage_labeling_lineanchortype": "strict", "auxiliary_storage_labeling_lineanchortextpoint": "start" }, "geometry": { "type": "LineString", "coordinates": [ [ -58.75957, -34.577736 ], [ -58.760077, -34.578207 ], [ -58.760985, -34.579037 ], [ -58.761963, -34.57995 ], [ -58.762799, -34.580715 ], [ -58.762329, -34.581079 ], [ -58.762192, -34.581178 ], [ -58.763047, -34.581948 ], [ -58.763095, -34.582028 ], [ -58.763014, -34.582096 ], [ -58.763063, -34.582175 ], [ -58.762844, -34.583686 ], [ -58.762794, -34.583765 ], [ -58.762845, -34.583805 ], [ -58.76298, -34.583931 ], [ -58.762744, -34.585419 ], [ -58.76262, -34.58551 ], [ -58.762556, -34.585557 ], [ -58.76197, -34.586026 ], [ -58.761372, -34.586489 ], [ -58.760815, -34.586908 ], [ -58.760776, -34.586963 ], [ -58.760719, -34.587047 ], [ -58.759906, -34.587631 ], [ -58.759737, -34.587747 ], [ -58.759792, -34.587856 ], [ -58.75985, -34.589678 ], [ -58.759904, -34.590318 ], [ -58.759957, -34.591548 ], [ -58.759979, -34.59162 ], [ -58.759467, -34.592008 ], [ -58.759036, -34.592337 ], [ -58.758652, -34.592636 ], [ -58.758208, -34.592977 ], [ -58.757805, -34.593291 ], [ -58.757407, -34.593601 ], [ -58.757006, -34.593891 ], [ -58.756199, -34.5945 ], [ -58.755704, -34.594855 ], [ -58.754646, -34.595671 ], [ -58.755398, -34.596579 ], [ -58.756856, -34.598258 ], [ -58.757377, -34.598886 ], [ -58.757911, -34.599499 ], [ -58.758202, -34.599826 ], [ -58.758441, -34.600027 ], [ -58.758839, -34.600348 ], [ -58.759182, -34.600587 ], [ -58.760428, -34.601498 ], [ -58.760912, -34.601875 ], [ -58.761223, -34.602104 ], [ -58.762078, -34.602754 ], [ -58.762948, -34.6034 ], [ -58.763769, -34.604019 ], [ -58.764046, -34.60423 ], [ -58.76457, -34.604632 ], [ -58.765308, -34.605204 ], [ -58.765766, -34.605566 ], [ -58.766247, -34.606047 ], [ -58.76643, -34.606278 ], [ -58.766802, -34.606794 ], [ -58.767159, -34.607386 ], [ -58.767499, -34.608146 ], [ -58.768069, -34.609442 ], [ -58.768436, -34.61026 ], [ -58.768865, -34.611206 ], [ -58.768937, -34.611381 ], [ -58.769402, -34.612486 ], [ -58.769659, -34.613072 ], [ -58.769838, -34.613479 ], [ -58.770682, -34.615351 ], [ -58.770745, -34.615455 ], [ -58.771134, -34.616042 ], [ -58.771444, -34.616517 ], [ -58.772006, -34.617344 ], [ -58.772784, -34.618526 ], [ -58.772859, -34.618634 ], [ -58.773717, -34.619889 ], [ -58.773829, -34.620058 ], [ -58.774277, -34.620722 ], [ -58.774401, -34.620896 ], [ -58.774593, -34.621193 ], [ -58.774714, -34.62135 ], [ -58.775757, -34.622888 ], [ -58.776363, -34.623889 ], [ -58.777013, -34.624936 ], [ -58.777664, -34.625962 ], [ -58.777851, -34.626245 ], [ -58.778283, -34.626811 ], [ -58.778944, -34.627628 ], [ -58.779602, -34.628471 ], [ -58.779927, -34.628882 ], [ -58.780412, -34.629478 ], [ -58.780993, -34.63025 ], [ -58.781544, -34.63092 ], [ -58.781733, -34.631154 ], [ -58.782219, -34.631772 ], [ -58.783074, -34.632792 ], [ -58.7832, -34.632951 ], [ -58.78349, -34.633258 ], [ -58.784058, -34.633785 ], [ -58.784493, -34.634203 ], [ -58.784772, -34.634464 ], [ -58.785059, -34.634705 ], [ -58.7854, -34.634947 ], [ -58.785642, -34.635058 ], [ -58.785743, -34.635088 ], [ -58.785863, -34.635177 ], [ -58.785904, -34.635231 ], [ -58.785931, -34.635298 ], [ -58.785991, -34.63568 ], [ -58.78604, -34.635976 ], [ -58.786174, -34.636328 ], [ -58.786761, -34.637796 ], [ -58.787059, -34.638523 ], [ -58.787534, -34.639645 ], [ -58.787991, -34.640752 ], [ -58.78844, -34.64187 ], [ -58.78858, -34.642228 ], [ -58.788714, -34.642243 ] ] } }
]
}
