{
"type": "FeatureCollection",
"name": "r10",
"crs": { "type": "name", "properties": { "name": "urn:ogc:def:crs:OGC:1.3:CRS84" } },
"features": [
{ "type": "Feature", "properties": { "DIST_KM": 3.579, "DURATION_H": 0.116, "PROFILE": "driving-car", "PREF": "fastest", "OPTIONS": { }, "FROM_ID": null, "TO_ID": null }, "geometry": { "type": "LineString", "coordinates": [ [ -58.782429, -34.665165 ], [ -58.782697, -34.664885 ], [ -58.783535, -34.664041 ], [ -58.783742, -34.663833 ], [ -58.784699, -34.662866 ], [ -58.784796, -34.662769 ], [ -58.785863, -34.661703 ], [ -58.785415, -34.660563 ], [ -58.784963, -34.659455 ], [ -58.784512, -34.658348 ], [ -58.784056, -34.657229 ], [ -58.783598, -34.656106 ], [ -58.783148, -34.655002 ], [ -58.782708, -34.653894 ], [ -58.782294, -34.652851 ], [ -58.782354, -34.652701 ], [ -58.782215, -34.652387 ], [ -58.781761, -34.651272 ], [ -58.78132, -34.65016 ], [ -58.780888, -34.649054 ], [ -58.78044, -34.647931 ], [ -58.779995, -34.646828 ], [ -58.779493, -34.645559 ], [ -58.779417, -34.645366 ], [ -58.779488, -34.645289 ], [ -58.779672, -34.6451 ], [ -58.780417, -34.644336 ], [ -58.780733, -34.643991 ], [ -58.781489, -34.643217 ], [ -58.781564, -34.643136 ], [ -58.782546, -34.642096 ], [ -58.782773, -34.64208 ], [ -58.783936, -34.641872 ], [ -58.785289, -34.641499 ], [ -58.786632, -34.641128 ], [ -58.787991, -34.640752 ], [ -58.78844, -34.64187 ], [ -58.78858, -34.642228 ], [ -58.788714, -34.642243 ] ] } }
]
}
