{
"type": "FeatureCollection",
"name": "r2",
"crs": { "type": "name", "properties": { "name": "urn:ogc:def:crs:OGC:1.3:CRS84" } },
"features": [
{ "type": "Feature", "properties": { "DIST_KM": 3.351, "DURATION_H": 0.101, "PROFILE": "driving-car", "PREF": "fastest", "OPTIONS": { }, "FROM_ID": null, "TO_ID": null }, "geometry": { "type": "LineString", "coordinates": [ [ -58.80559, -34.621372 ], [ -58.805535, -34.6214 ], [ -58.805109, -34.620919 ], [ -58.80439, -34.620425 ], [ -58.804185, -34.62029 ], [ -58.803392, -34.621109 ], [ -58.802659, -34.621856 ], [ -58.801859, -34.622673 ], [ -58.801265, -34.623274 ], [ -58.79998, -34.624601 ], [ -58.798619, -34.626015 ], [ -58.798096, -34.626562 ], [ -58.797942, -34.626718 ], [ -58.796834, -34.627843 ], [ -58.796356, -34.628311 ], [ -58.796198, -34.628463 ], [ -58.795463, -34.629148 ], [ -58.795091, -34.629509 ], [ -58.794824, -34.629766 ], [ -58.794589, -34.629999 ], [ -58.794336, -34.63024 ], [ -58.794231, -34.630337 ], [ -58.794159, -34.630406 ], [ -58.793764, -34.630799 ], [ -58.793696, -34.630867 ], [ -58.792989, -34.631571 ], [ -58.792465, -34.632103 ], [ -58.792061, -34.632511 ], [ -58.791436, -34.633163 ], [ -58.791156, -34.633454 ], [ -58.791133, -34.633512 ], [ -58.791142, -34.63357 ], [ -58.791455, -34.634176 ], [ -58.791692, -34.634766 ], [ -58.791565, -34.634826 ], [ -58.790978, -34.635006 ], [ -58.790807, -34.635054 ], [ -58.790482, -34.635143 ], [ -58.790229, -34.635194 ], [ -58.789268, -34.635441 ], [ -58.788897, -34.635505 ], [ -58.788904, -34.635595 ], [ -58.787836, -34.636728 ], [ -58.787269, -34.637287 ], [ -58.786761, -34.637796 ], [ -58.787059, -34.638523 ], [ -58.787534, -34.639645 ], [ -58.787991, -34.640752 ], [ -58.78844, -34.64187 ], [ -58.78858, -34.642228 ], [ -58.788714, -34.642243 ] ] } }
]
}
