{
"type": "FeatureCollection",
"name": "r8",
"crs": { "type": "name", "properties": { "name": "urn:ogc:def:crs:OGC:1.3:CRS84" } },
"features": [
{ "type": "Feature", "properties": { "DIST_KM": 7.648, "DURATION_H": 0.199, "PROFILE": "driving-car", "PREF": "fastest", "OPTIONS": { }, "FROM_ID": null, "TO_ID": null }, "geometry": { "type": "LineString", "coordinates": [ [ -58.743951, -34.59884 ], [ -58.744305, -34.598574 ], [ -58.744524, -34.598399 ], [ -58.744929, -34.598078 ], [ -58.745565, -34.597593 ], [ -58.746155, -34.597162 ], [ -58.746899, -34.596593 ], [ -58.746959, -34.596549 ], [ -58.748104, -34.59569 ], [ -58.748212, -34.595609 ], [ -58.749287, -34.594789 ], [ -58.750002, -34.594229 ], [ -58.750452, -34.593901 ], [ -58.750602, -34.593796 ], [ -58.750983, -34.593513 ], [ -58.751043, -34.593468 ], [ -58.751912, -34.592802 ], [ -58.752293, -34.592526 ], [ -58.752764, -34.592154 ], [ -58.75281, -34.592119 ], [ -58.752841, -34.592092 ], [ -58.753038, -34.592601 ], [ -58.753348, -34.593372 ], [ -58.75353, -34.593769 ], [ -58.753749, -34.594181 ], [ -58.753797, -34.594276 ], [ -58.754207, -34.594973 ], [ -58.754646, -34.595671 ], [ -58.755398, -34.596579 ], [ -58.756856, -34.598258 ], [ -58.757377, -34.598886 ], [ -58.757911, -34.599499 ], [ -58.758202, -34.599826 ], [ -58.758441, -34.600027 ], [ -58.758839, -34.600348 ], [ -58.759182, -34.600587 ], [ -58.760428, -34.601498 ], [ -58.760912, -34.601875 ], [ -58.761223, -34.602104 ], [ -58.762078, -34.602754 ], [ -58.762948, -34.6034 ], [ -58.763769, -34.604019 ], [ -58.764046, -34.60423 ], [ -58.76457, -34.604632 ], [ -58.765308, -34.605204 ], [ -58.765766, -34.605566 ], [ -58.766247, -34.606047 ], [ -58.76643, -34.606278 ], [ -58.766802, -34.606794 ], [ -58.767159, -34.607386 ], [ -58.767499, -34.608146 ], [ -58.768069, -34.609442 ], [ -58.768436, -34.61026 ], [ -58.768865, -34.611206 ], [ -58.768937, -34.611381 ], [ -58.769402, -34.612486 ], [ -58.769659, -34.613072 ], [ -58.769838, -34.613479 ], [ -58.770682, -34.615351 ], [ -58.770745, -34.615455 ], [ -58.771134, -34.616042 ], [ -58.771444, -34.616517 ], [ -58.772006, -34.617344 ], [ -58.772784, -34.618526 ], [ -58.772859, -34.618634 ], [ -58.773717, -34.619889 ], [ -58.773829, -34.620058 ], [ -58.774277, -34.620722 ], [ -58.774401, -34.620896 ], [ -58.774593, -34.621193 ], [ -58.774714, -34.62135 ], [ -58.775757, -34.622888 ], [ -58.776363, -34.623889 ], [ -58.777013, -34.624936 ], [ -58.777664, -34.625962 ], [ -58.777851, -34.626245 ], [ -58.778283, -34.626811 ], [ -58.778944, -34.627628 ], [ -58.779602, -34.628471 ], [ -58.779927, -34.628882 ], [ -58.780412, -34.629478 ], [ -58.780993, -34.63025 ], [ -58.781544, -34.63092 ], [ -58.781733, -34.631154 ], [ -58.782219, -34.631772 ], [ -58.783074, -34.632792 ], [ -58.7832, -34.632951 ], [ -58.78349, -34.633258 ], [ -58.784058, -34.633785 ], [ -58.784493, -34.634203 ], [ -58.784772, -34.634464 ], [ -58.785059, -34.634705 ], [ -58.7854, -34.634947 ], [ -58.785642, -34.635058 ], [ -58.785743, -34.635088 ], [ -58.785863, -34.635177 ], [ -58.785904, -34.635231 ], [ -58.785931, -34.635298 ], [ -58.785991, -34.63568 ], [ -58.78604, -34.635976 ], [ -58.786174, -34.636328 ], [ -58.786761, -34.637796 ], [ -58.787059, -34.638523 ], [ -58.787534, -34.639645 ], [ -58.787991, -34.640752 ], [ -58.78844, -34.64187 ], [ -58.788497, -34.642014 ] ] } }
]
}
