{
"type": "FeatureCollection",
"name": "r9",
"crs": { "type": "name", "properties": { "name": "urn:ogc:def:crs:OGC:1.3:CRS84" } },
"features": [
{ "type": "Feature", "properties": { "DIST_KM": 6.142, "DURATION_H": 0.177, "PROFILE": "driving-car", "PREF": "fastest", "OPTIONS": { }, "FROM_ID": null, "TO_ID": null }, "geometry": { "type": "LineString", "coordinates": [ [ -58.826268, -34.667688 ], [ -58.825963, -34.666959 ], [ -58.825669, -34.666228 ], [ -58.825474, -34.665751 ], [ -58.825374, -34.665505 ], [ -58.825079, -34.664775 ], [ -58.824789, -34.664026 ], [ -58.824015, -34.664244 ], [ -58.823173, -34.664475 ], [ -58.821588, -34.664912 ], [ -58.820001, -34.66535 ], [ -58.819878, -34.665385 ], [ -58.818386, -34.665796 ], [ -58.817311, -34.666093 ], [ -58.816245, -34.666387 ], [ -58.815199, -34.666676 ], [ -58.814421, -34.666891 ], [ -58.814128, -34.666972 ], [ -58.813618, -34.667112 ], [ -58.813027, -34.665649 ], [ -58.812437, -34.664189 ], [ -58.811869, -34.662782 ], [ -58.811256, -34.661264 ], [ -58.810646, -34.659753 ], [ -58.810074, -34.658338 ], [ -58.810014, -34.658275 ], [ -58.809914, -34.658219 ], [ -58.808984, -34.658022 ], [ -58.808195, -34.657848 ], [ -58.808034, -34.657848 ], [ -58.807951, -34.657839 ], [ -58.806979, -34.657457 ], [ -58.80615, -34.657126 ], [ -58.805933, -34.657042 ], [ -58.805363, -34.656812 ], [ -58.804785, -34.656549 ], [ -58.803648, -34.655989 ], [ -58.802506, -34.655446 ], [ -58.801374, -34.654901 ], [ -58.800223, -34.654347 ], [ -58.79908, -34.653796 ], [ -58.797927, -34.653242 ], [ -58.798431, -34.652531 ], [ -58.798551, -34.652318 ], [ -58.798563, -34.652244 ], [ -58.798552, -34.652051 ], [ -58.798509, -34.651922 ], [ -58.798089, -34.65085 ], [ -58.798066, -34.650795 ], [ -58.797649, -34.649791 ], [ -58.797615, -34.64971 ], [ -58.797162, -34.648628 ], [ -58.797025, -34.648294 ], [ -58.796868, -34.647919 ], [ -58.796567, -34.647185 ], [ -58.796481, -34.646963 ], [ -58.796133, -34.64607 ], [ -58.795677, -34.644941 ], [ -58.795243, -34.643842 ], [ -58.794802, -34.642754 ], [ -58.794294, -34.64146 ], [ -58.793844, -34.640369 ], [ -58.793397, -34.639264 ], [ -58.792042, -34.639633 ], [ -58.790687, -34.640007 ], [ -58.789316, -34.640386 ], [ -58.787991, -34.640752 ], [ -58.78844, -34.64187 ], [ -58.78858, -34.642228 ], [ -58.788714, -34.642243 ] ] } }
]
}
